STARLINK-1619           
1 46126U 20057K   23231.09246803 -.00001953  00000+0 -11227-3 0  9991
2 46126  53.0540 187.6973 0001534  85.9174 274.1990 15.06388738166011
STARLINK-1621           
1 46127U 20057L   23231.14959803  .00021217  00000+0  14398-2 0  9993
2 46127  53.0536 167.4449 0001347 105.1542 254.9596 15.06379345166301
STARLINK-1622           
1 46128U 20057M   23231.04455282 -.00000644  00000+0 -24356-4 0  9995
2 46128  53.0528 147.9163 0001385  71.5967 288.5172 15.06387528166561
STARLINK-1623           
1 46129U 20057N   23231.08509576 -.00007762  00000+0 -50300-3 0  9991
2 46129  53.0537 147.7324 0001483  88.0402 272.0757 15.06380880166577
STARLINK-1624           
1 46130U 20057P   23231.05193105  .00018702  00000+0  12717-2 0  9990
2 46130  53.0536 147.8835 0001464  83.0103 277.1053 15.06382424166568
STARLINK-1625           
1 46131U 20057Q   23231.06482441  .00013629  00000+0  93263-3 0  9995
2 46131  53.0551 167.8270 0001471  90.4766 269.6392 15.06377093166283
STARLINK-1630           
1 46132U 20057R   23231.03717311 -.00006312  00000+0 -40537-3 0  9999
2 46132  53.0537 187.9483 0001453  78.5832 281.5320 15.06386980166007
STARLINK-1637           
1 46133U 20057S   23230.77179806  .00001429  00000+0  11484-3 0  9992
2 46133  53.0539 149.1417 0001684  87.4431 272.6750 15.06390204166526
STARLINK-1638           
1 46134U 20057T   23230.91667824  .01077215  00000+0  57427-1 0  9993
2 46134  53.0530 148.4303 0001460 101.6874 335.9389 15.11933061166549
STARLINK-1639           
1 46135U 20057U   23231.05560521 -.00011224  00000+0 -73618-3 0  9997
2 46135  53.0567 147.8645 0001614  74.1254 285.9913 15.06378823166561
STARLINK-1643           
1 46136U 20057V   23230.57272151  .00006483  00000+0  45384-3 0  9991
2 46136  53.0544 180.0227 0001448  96.3143 263.8011 15.06390805166074
STARLINK-1586           
1 46137U 20057W   23230.85840097  .00006284  00000+0  44058-3 0  9999
2 46137  53.0539 168.7496 0001710 106.1694 253.9484 15.06382234166265
STARLINK-1590           
1 46138U 20057X   23231.05560963 -.00006731  00000+0 -43351-3 0  9998
2 46138  53.0552 187.8694 0002182  93.7776 266.3462 15.06387486166009
STARLINK-1594           
1 46140U 20057Z   23231.08141619  .00003146  00000+0  23003-3 0  9994
2 46140  53.0530 147.7445 0001225 126.8060 233.3042 15.06395376166575
STARLINK-1596           
1 46141U 20057AA  23231.05929487  .00020967  00000+0  14232-2 0  9992
2 46141  53.0534 147.8502 0001478  71.8950 288.2199 15.06376005166561
STARLINK-1597           
1 46142U 20057AB  23231.07772399 -.00003277  00000+0 -20124-3 0  9998
2 46142  53.0538 187.7620 0001531  89.9752 270.1412 15.06385895166004
STARLINK-1606           
1 46144U 20057AD  23231.10905455  .00017878  00000+0  12164-2 0  9999
2 46144  53.0537 167.6228 0001064 103.5384 256.5723 15.06388996166302
STARLINK-1608           
1 46146U 20057AF  23231.08877865 -.00003320  00000+0 -20419-3 0  9993
2 46146  53.0536 187.7159 0001501  84.3489 275.7671 15.06385650166014
STARLINK-1611           
1 46147U 20057AG  23230.60592624 -.00000141  00000+0  93996-5 0  9997
2 46147  53.0545 189.8843 0001295  89.6289 270.4848 15.06395777165933
STARLINK-1616           
1 46148U 20057AH  23231.07588411  .00002467  00000+0  18451-3 0  9992
2 46148  53.0539 167.7752 0001554  88.8764 271.2403 15.06393565166286
STARLINK-1620           
1 46149U 20057AJ  23231.08967936  .00000938  00000+0  81887-4 0  9992
2 46149  53.0536 167.7038 0001736  84.1744 275.9443 15.06386205166299
STARLINK-1629           
1 46150U 20057AK  23230.62066723 -.00008558  00000+0 -55644-3 0  9996
2 46150  53.0535 189.8161 0001438  81.6266 278.4886 15.06390913165943
STARLINK-1631           
1 46151U 20057AL  23231.06113807  .00015697  00000+0  10710-2 0  9996
2 46151  53.0542 167.8425 0001448  83.2896 276.8258 15.06377174166286
STARLINK-1634           
1 46152U 20057AM  23231.04359670 -.00006190  00000+0 -39715-3 0  9992
2 46152  53.0543 187.9106 0001689  94.7224 265.3957 15.06385594166000
STARLINK-1636           
1 46153U 20057AN  23231.14591127  .00019756  00000+0  13423-2 0  9996
2 46153  53.0534 167.4586 0001380  78.2786 281.8358 15.06376240166291
STARLINK-1642           
1 46154U 20057AP  23231.08970048  .00013334  00000+0  91288-3 0  9995
2 46154  53.0539 177.7139 0001484  82.0073 278.1084 15.06377322166143
STARLINK-1667           
1 46155U 20057AQ  23231.04824048  .00020186  00000+0  13710-2 0  9996
2 46155  53.0540 147.8993 0001560  71.5401 288.5758 15.06377460166567
STARLINK-1545           
1 46156U 20057AR  23231.10537063 -.00000436  00000+0 -10394-4 0  9997
2 46156  53.0540 167.6400 0001485  80.1693 279.9463 15.06387858166307
STARLINK-1587           
1 46157U 20057AS  23231.15881594  .00026593  00000+0  17987-2 0  9997
2 46157  53.0537 147.4013 0001331  76.5084 283.6053 15.06374598166587
STARLINK-1589           
1 46158U 20057AT  23231.08878446  .00021239  00000+0  14413-2 0  9995
2 46158  53.0533 147.7150 0001453  78.9592 281.1561 15.06377176166575
STARLINK-1595           
1 46159U 20057AU  23231.06297019 -.00005999  00000+0 -38433-3 0  9991
2 46159  53.0530 187.8320 0001311  86.3866 273.7272 15.06385941166000
STARLINK-1598           
1 46160U 20057AV  23231.18646134  .00021102  00000+0  14322-2 0  9994
2 46160  53.0541 167.2759 0001463  75.5807 284.5344 15.06376627166310
STARLINK-1600           
1 46161U 20057AW  23231.09800316  .00000617  00000+0  60359-4 0  9990
2 46161  53.0538 167.6746 0001540  87.0363 273.0802 15.06390743166292
STARLINK-1603           
1 46162U 20057AX  23231.10167821  .00020254  00000+0  13756-2 0  9996
2 46162  53.0538 167.6609 0001613 111.4710 248.6451 15.06375698166302
STARLINK-1610           
1 46163U 20057AY  23231.03349665  .00020908  00000+0  14192-2 0  9998
2 46163  53.0534 147.9659 0001165  70.3842 289.7273 15.06378421166569
STARLINK-1612           
1 46164U 20057AZ  23231.02981312  .00019043  00000+0  12946-2 0  9992
2 46164  53.0529 147.9815 0001149  71.7447 288.3667 15.06379032166567
STARLINK-1613           
1 46165U 20057BA  23230.10473706  .00024833  00000+0  71304-3 0  9991
2 46165  53.0597 136.2274 0005636 109.6594 250.5017 15.35711975166650
STARLINK-1615           
1 46166U 20057BB  23231.08141378 -.00001554  00000+0 -85487-4 0  9992
2 46166  53.0543 187.7438 0002081  91.1635 268.9593 15.06386846166012
STARLINK-1626           
1 46167U 20057BC  23231.02980157  .00006339  00000+0  44400-3 0  9996
2 46167  53.0532 187.9798 0001609  93.7093 266.4080 15.06403465166003
STARLINK-1627           
1 46168U 20057BD  23231.07497511  .00024284  00000+0  16449-2 0  9999
2 46168  53.0534 137.8665 0001244  80.5867 279.5263 15.06369258166707
STARLINK-1628           
1 46169U 20057BE  23231.04459265 -.00005161  00000+0 -32791-3 0  9995
2 46169  53.0546 188.2930 0001681  96.1208 263.9972 15.06388267165943
STARLINK-1633           
1 46171U 20057BG  23231.07219699  .00015384  00000+0  10499-2 0  9992
2 46171  53.0537 167.7912 0001565 100.6991 259.4175 15.06382176166285
STARLINK-1635           
1 46172U 20057BH  23231.08694065  .00002140  00000+0  16256-3 0  9992
2 46172  53.0536 167.7261 0001385  78.3054 281.8091 15.06385479166288
STARLINK-1640           
1 46173U 20057BJ  23231.06665975 -.00006209  00000+0 -39845-3 0  9990
2 46173  53.0532 187.8162 0001484  82.7941 277.3216 15.06385510166007
STARLINK-1641           
1 46174U 20057BK  23230.60960851 -.00004383  00000+0 -27560-3 0  9993
2 46174  53.0532 189.8656 0002355  83.7843 276.3414 15.06388639165933
STARLINK-1734           
1 46325U 20062A   23230.35573462 -.00002867  00000+0 -17368-3 0  9997
2 46325  53.0523 206.0074 0001478  97.0403 263.0754 15.06389321164705
STARLINK-1654           
1 46326U 20062B   23230.08808298  .00001361  00000+0  11024-3 0  9995
2 46326  53.0520 252.4503 0001471 102.2980 257.8174 15.06398869163621
STARLINK-1673           
1 46327U 20062C   23231.10538031 -.00001273  00000+0 -66627-4 0  9999
2 46327  53.0531 247.6430 0000685 120.1299 239.9758 15.06388638163775
STARLINK-1686           
1 46328U 20062D   23230.15624001  .00000403  00000+0  45947-4 0  9991
2 46328  53.0515 231.9016 0001641 107.1610 252.9558 15.06394392163901
STARLINK-1695           
1 46329U 20062E   23230.05672183 -.00000332  00000+0 -33592-5 0  9992
2 46329  53.0533 232.3489 0001663  89.0279 271.0900 15.06393304163897
STARLINK-1710           
1 46330U 20062F   23230.97451763 -.00000043  00000+0  15981-4 0  9993
2 46330  53.0535 228.2304 0001404  98.8737 261.2411 15.06402533163861
STARLINK-1719           
1 46331U 20062G   23230.08068109  .00000844  00000+0  75536-4 0  9994
2 46331  53.0521 252.2395 0001528  87.5740 272.5424 15.06394488163622
STARLINK-1721           
1 46332U 20062H   23230.71629066  .00014680  00000+0  67098-3 0  9996
2 46332  53.0562 236.4325 0001734  40.3272 319.7852 15.20790767163907
STARLINK-1723           
1 46333U 20062J   23229.77474050  .00000187  00000+0  31441-4 0  9993
2 46333  53.0530 253.6168 0001366 105.9343 254.1796 15.06394932163577
STARLINK-1725           
1 46334U 20062K   23230.97086432  .00000095  00000+0  25258-4 0  9998
2 46334  53.0548 228.5245 0001440 100.2740 259.8412 15.06403125164030
STARLINK-1727           
1 46335U 20062L   23230.06962122 -.00000986  00000+0 -47300-4 0  9991
2 46335  53.0526 252.2915 0001361 100.3639 259.7504 15.06399071163624
STARLINK-1738           
1 46336U 20062M   23230.72388006  .00001580  00000+0  12494-3 0  9992
2 46336  53.0536 229.3543 0001512  86.4085 273.7077 15.06398516164002
STARLINK-1750           
1 46337U 20062N   23230.73862048  .00002121  00000+0  16128-3 0  9997
2 46337  53.0540 229.2884 0001267 103.9731 256.1399 15.06397209164005
STARLINK-1752           
1 46338U 20062P   23230.05856983  .00002169  00000+0  16450-3 0  9994
2 46338  53.0529 252.3418 0001765  84.6027 275.5163 15.06400176163617
